start=new Date('2022-07-30T00:00:00.000Z').valueOf();
sats=[{"NORAD_CAT_ID":"45566","OBJECT_TYPE":"PAYLOAD","SEMIMAJOR_AXIS":"6925.364","INCLINATION":"53.0543","CLASSIFICATION_TYPE":"U","COUNTRY_CODE":"US","ECCENTRICITY":"0.00015450","FILE":"3524848","PERIAPSIS":"546.159","REV_AT_EPOCH":"12658","SITE":"AFETR","MEAN_ELEMENT_THEORY":"SGP4","MEAN_ANOMALY":"284.4779","TIME_SYSTEM":"UTC","BSTAR":"0.00007582800000","MEAN_MOTION_DOT":"0.00000848","MEAN_MOTION":"15.06395121","MEAN_MOTION_DDOT":"0.0000000000000","GP_ID":"209131110","LAUNCH_DATE":"2020-04-22","PERIOD":"95.592","TLE_LINE1":"1 45566U 20025AM  22210.83717109  .00000848  00000-0  75828-4 0  9992","ARG_OF_PERICENTER":"75.6381","APOAPSIS":"548.298","OBJECT_ID":"2020-025AM","RA_OF_ASC_NODE":"247.1890","EPHEMERIS_TYPE":"0","CENTER_NAME":"EARTH","TLE_LINE2":"2 45566  53.0543 247.1890 0001545  75.6381 284.4779 15.06395121126580","REF_FRAME":"TEME","DECAY_DATE":null,"ELEMENT_SET_NO":"999","OBJECT_NAME":"STARLINK-1358","RCS_SIZE":"LARGE","EPOCH":"2022-07-29T20:05:31.582176"},{"PERIOD":"95.592","TLE_LINE1":"1 45567U 20025AN  22210.51650511  .00001054  00000-0  89630-4 0  9997","APOAPSIS":"548.130","ARG_OF_PERICENTER":"83.0219","OBJECT_ID":"2020-025AN","MEAN_MOTION":"15.06402251","MEAN_MOTION_DDOT":"0.0000000000000","GP_ID":"209101157","LAUNCH_DATE":"2020-04-22","REV_AT_EPOCH":"12654","MEAN_ELEMENT_THEORY":"SGP4","SITE":"AFETR","TIME_SYSTEM":"UTC","MEAN_ANOMALY":"277.0921","MEAN_MOTION_DOT":"0.00001054","BSTAR":"0.00008963000000","OBJECT_TYPE":"PAYLOAD","SEMIMAJOR_AXIS":"6925.342","NORAD_CAT_ID":"45567","CLASSIFICATION_TYPE":"U","INCLINATION":"53.0537","COUNTRY_CODE":"US","PERIAPSIS":"546.283","FILE":"3524608","ECCENTRICITY":"0.00013340","OBJECT_NAME":"STARLINK-1361","RCS_SIZE":"LARGE","EPOCH":"2022-07-29T12:23:46.041504","DECAY_DATE":null,"ELEMENT_SET_NO":"999","TLE_LINE2":"2 45567  53.0537 248.6057 0001334  83.0219 277.0921 15.06402251126540","REF_FRAME":"TEME","RA_OF_ASC_NODE":"248.6057","EPHEMERIS_TYPE":"0","CENTER_NAME":"EARTH"},{"OBJECT_NAME":"STARLINK-1363","RCS_SIZE":"LARGE","EPOCH":"2022-07-29T19:07:12.069408","DECAY_DATE":null,"ELEMENT_SET_NO":"999","TLE_LINE2":"2 45568  53.0541 247.6049 0001408  76.7991 283.3155 15.06403877126571","REF_FRAME":"TEME","RA_OF_ASC_NODE":"247.6049","EPHEMERIS_TYPE":"0","CENTER_NAME":"EARTH","PERIOD":"95.592","TLE_LINE1":"1 45568U 20025AP  22210.79666747  .00001255  00000-0  10312-3 0  9999","APOAPSIS":"548.177","ARG_OF_PERICENTER":"76.7991","OBJECT_ID":"2020-025AP","MEAN_MOTION":"15.06403877","MEAN_MOTION_DDOT":"0.0000000000000","LAUNCH_DATE":"2020-04-22","GP_ID":"209129613","REV_AT_EPOCH":"12657","SITE":"AFETR","MEAN_ELEMENT_THEORY":"SGP4","MEAN_ANOMALY":"283.3155","TIME_SYSTEM":"UTC","BSTAR":"0.00010312000000","MEAN_MOTION_DOT":"0.00001255","OBJECT_TYPE":"PAYLOAD","NORAD_CAT_ID":"45568","SEMIMAJOR_AXIS":"6925.337","INCLINATION":"53.0541","CLASSIFICATION_TYPE":"U","COUNTRY_CODE":"US","ECCENTRICITY":"0.00014080","FILE":"3524848","PERIAPSIS":"546.227"},{"GP_ID":"209129863","LAUNCH_DATE":"2020-04-22","MEAN_MOTION":"15.06396740","MEAN_MOTION_DDOT":"0.0000000000000","OBJECT_ID":"2020-025AQ","TLE_LINE1":"1 45569U 20025AQ  22210.58652438 -.00000512  00000-0 -15479-4 0  9996","PERIOD":"95.592","APOAPSIS":"548.262","ARG_OF_PERICENTER":"66.9916","COUNTRY_CODE":"US","FILE":"3524848","PERIAPSIS":"546.185","ECCENTRICITY":"0.00015000","OBJECT_TYPE":"PAYLOAD","NORAD_CAT_ID":"45569","SEMIMAJOR_AXIS":"6925.359","CLASSIFICATION_TYPE":"U","INCLINATION":"53.0540","TIME_SYSTEM":"UTC","MEAN_ANOMALY":"293.1231","BSTAR":"-0.00001547900000","MEAN_MOTION_DOT":"-0.00000512","REV_AT_EPOCH":"12654","MEAN_ELEMENT_THEORY":"SGP4","SITE":"AFETR","ELEMENT_SET_NO":"999","DECAY_DATE":null,"RCS_SIZE":"LARGE","EPOCH":"2022-07-29T14:04:35.706432","OBJECT_NAME":"STARLINK-1366","CENTER_NAME":"EARTH","RA_OF_ASC_NODE":"248.3057","EPHEMERIS_TYPE":"0","REF_FRAME":"TEME","TLE_LINE2":"2 45569  53.0540 248.3057 0001500  66.9916 293.1231 15.06396740126540"},{"REV_AT_EPOCH":"12657","SITE":"AFETR","MEAN_ELEMENT_THEORY":"SGP4","MEAN_ANOMALY":"280.7217","TIME_SYSTEM":"UTC","BSTAR":"0.00002595500000","MEAN_MOTION_DOT":"0.00000105","OBJECT_TYPE":"PAYLOAD","NORAD_CAT_ID":"45570","SEMIMAJOR_AXIS":"6925.369","INCLINATION":"53.0539","CLASSIFICATION_TYPE":"U","COUNTRY_CODE":"US","FILE":"3524848","ECCENTRICITY":"0.00011970","PERIAPSIS":"546.405","PERIOD":"95.593","TLE_LINE1":"1 45570U 20025AR  22210.77819346  .00000105  00000-0  25955-4 0  9998","APOAPSIS":"548.063","ARG_OF_PERICENTER":"79.3906","OBJECT_ID":"2020-025AR","MEAN_MOTION":"15.06393411","MEAN_MOTION_DDOT":"0.0000000000000","GP_ID":"209130611","LAUNCH_DATE":"2020-04-22","TLE_LINE2":"2 45570  53.0539 247.4350 0001197  79.3906 280.7217 15.06393411126576","REF_FRAME":"TEME","RA_OF_ASC_NODE":"247.4350","EPHEMERIS_TYPE":"0","CENTER_NAME":"EARTH","OBJECT_NAME":"STARLINK-1376","RCS_SIZE":"LARGE","EPOCH":"2022-07-29T18:40:35.914944","DECAY_DATE":null,"ELEMENT_SET_NO":"999"},{"PERIOD":"95.593","TLE_LINE1":"1 45571U 20025AS  22210.79387490  .00001902  00000-0  14655-3 0  9991","APOAPSIS":"548.207","ARG_OF_PERICENTER":"77.8362","OBJECT_ID":"2020-025AS","MEAN_MOTION":"15.06391544","MEAN_MOTION_DDOT":"0.0000000000000","LAUNCH_DATE":"2020-04-22","GP_ID":"209131346","REV_AT_EPOCH":"12673","SITE":"AFETR","MEAN_ELEMENT_THEORY":"SGP4","MEAN_ANOMALY":"282.2783","TIME_SYSTEM":"UTC","MEAN_MOTION_DOT":"0.00001902","BSTAR":"0.00014655000000","OBJECT_TYPE":"PAYLOAD","SEMIMAJOR_AXIS":"6925.374","NORAD_CAT_ID":"45571","INCLINATION":"53.0511","CLASSIFICATION_TYPE":"U","COUNTRY_CODE":"US","PERIAPSIS":"546.272","FILE":"3524848","ECCENTRICITY":"0.00013970","OBJECT_NAME":"STARLINK-1261","RCS_SIZE":"LARGE","EPOCH":"2022-07-29T19:03:10.791360","DECAY_DATE":null,"ELEMENT_SET_NO":"999","TLE_LINE2":"2 45571  53.0511 237.3680 0001397  77.8362 282.2783 15.06391544126730","REF_FRAME":"TEME","RA_OF_ASC_NODE":"237.3680","EPHEMERIS_TYPE":"0","CENTER_NAME":"EARTH"},{"COUNTRY_CODE":"US","PERIAPSIS":"546.230","FILE":"3524848","ECCENTRICITY":"0.00014360","OBJECT_TYPE":"PAYLOAD","SEMIMAJOR_AXIS":"6925.359","NORAD_CAT_ID":"45572","INCLINATION":"53.0532","CLASSIFICATION_TYPE":"U","MEAN_ANOMALY":"281.5942","TIME_SYSTEM":"UTC","BSTAR":"-0.00000015659000","MEAN_MOTION_DOT":"-0.00000284","REV_AT_EPOCH":"12672","SITE":"AFETR","MEAN_ELEMENT_THEORY":"SGP4","LAUNCH_DATE":"2020-04-22","GP_ID":"209130113","MEAN_MOTION":"15.06396545","MEAN_MOTION_DDOT":"0.0000000000000","OBJECT_ID":"2020-025AT","PERIOD":"95.592","TLE_LINE1":"1 45572U 20025AT  22210.78649343 -.00000284  00000-0 -15659-6 0  9991","APOAPSIS":"548.219","ARG_OF_PERICENTER":"78.5208","CENTER_NAME":"EARTH","RA_OF_ASC_NODE":"237.4123","EPHEMERIS_TYPE":"0","REF_FRAME":"TEME","TLE_LINE2":"2 45572  53.0532 237.4123 0001436  78.5208 281.5942 15.06396545126722","ELEMENT_SET_NO":"999","DECAY_DATE":null,"RCS_SIZE":"LARGE","EPOCH":"2022-07-29T18:52:33.032352","OBJECT_NAME":"STARLINK-1320"},{"EPHEMERIS_TYPE":"0","RA_OF_ASC_NODE":"237.5140","CENTER_NAME":"EARTH","TLE_LINE2":"2 45573  53.0548 237.5140 0001480  62.2320 297.8819 15.06397034126417","REF_FRAME":"TEME","DECAY_DATE":null,"ELEMENT_SET_NO":"999","OBJECT_NAME":"STARLINK-1321","EPOCH":"2022-07-29T18:20:41.791776","RCS_SIZE":"LARGE","CLASSIFICATION_TYPE":"U","INCLINATION":"53.0548","SEMIMAJOR_AXIS":"6925.358","OBJECT_TYPE":"PAYLOAD","NORAD_CAT_ID":"45573","FILE":"3524848","ECCENTRICITY":"0.00014800","PERIAPSIS":"546.198","COUNTRY_CODE":"US","MEAN_ELEMENT_THEORY":"SGP4","SITE":"AFETR","REV_AT_EPOCH":"12641","MEAN_MOTION_DOT":"-0.00001017","BSTAR":"-0.00004942100000","TIME_SYSTEM":"UTC","MEAN_ANOMALY":"297.8819","MEAN_MOTION_DDOT":"0.0000000000000","MEAN_MOTION":"15.06397034","LAUNCH_DATE":"2020-04-22","GP_ID":"209130362","APOAPSIS":"548.248","ARG_OF_PERICENTER":"62.2320","TLE_LINE1":"1 45573U 20025AU  22210.76437259 -.00001017  00000-0 -49421-4 0  9998","PERIOD":"95.592","OBJECT_ID":"2020-025AU"},{"REF_FRAME":"TEME","TLE_LINE2":"2 45574  53.0529 237.3855 0001358  77.0173 283.0967 15.06398122126737","CENTER_NAME":"EARTH","EPHEMERIS_TYPE":"0","RA_OF_ASC_NODE":"237.3855","EPOCH":"2022-07-29T18:57:51.230592","RCS_SIZE":"LARGE","OBJECT_NAME":"STARLINK-1324","ELEMENT_SET_NO":"999","DECAY_DATE":null,"BSTAR":"-0.00000475140000","MEAN_MOTION_DOT":"-0.00000352","TIME_SYSTEM":"UTC","MEAN_ANOMALY":"283.0967","MEAN_ELEMENT_THEORY":"SGP4","SITE":"AFETR","REV_AT_EPOCH":"12673","FILE":"3524848","PERIAPSIS":"546.279","ECCENTRICITY":"0.00013580","COUNTRY_CODE":"US","CLASSIFICATION_TYPE":"U","INCLINATION":"53.0529","OBJECT_TYPE":"PAYLOAD","NORAD_CAT_ID":"45574","SEMIMAJOR_AXIS":"6925.354","OBJECT_ID":"2020-025AV","ARG_OF_PERICENTER":"77.0173","APOAPSIS":"548.160","TLE_LINE1":"1 45574U 20025AV  22210.79017628 -.00000352  00000-0 -47514-5 0  9999","PERIOD":"95.592","GP_ID":"209131111","LAUNCH_DATE":"2020-04-22","MEAN_MOTION_DDOT":"0.0000000000000","MEAN_MOTION":"15.06398122"},{"REF_FRAME":"TEME","TLE_LINE2":"2 45575  52.9952 222.8757 0000794  18.4463 341.6558 15.16151024126286","CENTER_NAME":"EARTH","RA_OF_ASC_NODE":"222.8757","EPHEMERIS_TYPE":"0","RCS_SIZE":"LARGE","EPOCH":"2022-07-29T18:06:56.943072","OBJECT_NAME":"STARLINK-1326","ELEMENT_SET_NO":"999","DECAY_DATE":null,"MEAN_ANOMALY":"341.6558","TIME_SYSTEM":"UTC","BSTAR":"0.00042451000000","MEAN_MOTION_DOT":"0.00007987","REV_AT_EPOCH":"12628","SITE":"AFETR","MEAN_ELEMENT_THEORY":"SGP4","COUNTRY_CODE":"US","PERIAPSIS":"516.941","FILE":"3524672","ECCENTRICITY":"0.00007940","OBJECT_TYPE":"PAYLOAD","SEMIMAJOR_AXIS":"6895.623","NORAD_CAT_ID":"45575","INCLINATION":"52.9952","CLASSIFICATION_TYPE":"U","OBJECT_ID":"2020-025AW","TLE_LINE1":"1 45575U 20025AW  22210.75482573  .00007987  00000-0  42451-3 0  9993","PERIOD":"94.977","APOAPSIS":"518.036","ARG_OF_PERICENTER":"18.4463","GP_ID":"209106812","LAUNCH_DATE":"2020-04-22","MEAN_MOTION":"15.16151024","MEAN_MOTION_DDOT":"0.0000000000000"}];
